{"type":"FeatureCollection","features":[{"type":"Feature","geometry":{"type":"Point","coordinates":[9.08434025952801,59.44572841498844]},"properties":null,"id":"f17cf44d-e66e-4a30-b018-2e5e2ed5f45f"},{"type":"Feature","geometry":{"type":"Point","coordinates":[9.084409244357406,59.44567340200956]},"properties":{"style":{"fill":{"color":null},"stroke":{"width":1},"text":{"text":"🦆","font":"12px Mulish","fillColor":"#000000","backgroundFillColor":"#ffffffff"}}},"id":"714a020c-2dba-4d5d-bee1-a84b2feec6d1"},{"type":"Feature","geometry":{"type":"Point","coordinates":[9.084483464872326,59.4456730832948]},"properties":{"style":{"fill":{"color":null},"stroke":{"width":1},"text":{"text":"🦆","font":"12px Mulish","fillColor":"#000000","backgroundFillColor":"#ffffffff"}}},"id":"c35bc1fb-6c97-4cfa-b12f-ead65a90d31b"},{"type":"Feature","geometry":{"type":"Point","coordinates":[9.084514665264074,59.44571188933734]},"properties":{"style":{"fill":{"color":null},"stroke":{"width":1},"text":{"text":"🦆","font":"12px Mulish","fillColor":"#000000","backgroundFillColor":"#ffffffff"}}},"id":"d5dcebf5-0746-4b99-8450-361ce421ea7d"},{"type":"Feature","geometry":{"type":"Point","coordinates":[9.084519581379322,59.44574161737497]},"properties":{"style":{"fill":{"color":null},"stroke":{"width":1},"text":{"text":"🦆","font":"12px Mulish","fillColor":"#000000","backgroundFillColor":"#ffffffff"}}},"id":"d92eedf9-846f-46f6-836e-6f02ea587536"},{"type":"Feature","geometry":{"type":"Point","coordinates":[9.084337605943238,59.445732614826106]},"properties":null,"id":"f034e612-cc59-4321-9925-8fd69c23b3a2"},{"type":"Feature","geometry":{"type":"Point","coordinates":[9.084332985606698,59.445739439905594]},"properties":null,"id":"075bae60-29a9-45bb-b53f-6f447d1d4226"},{"type":"Feature","geometry":{"type":"Point","coordinates":[9.083917439867118,59.44576475389588]},"properties":{"style":{"fill":{"color":null},"stroke":{"width":1},"text":{"text":"🦆","font":"12px Mulish","fillColor":"#000000","backgroundFillColor":"#ffffffff"}}},"id":"e6a04004-c1d0-4f40-8206-103c0ed7d1a6"},{"type":"Feature","geometry":{"type":"Point","coordinates":[9.084077178236777,59.445828840746486]},"properties":{"style":{"fill":{"color":null},"stroke":{"width":1},"text":{"text":"🦡","font":"12px Mulish","fillColor":"#000000","backgroundFillColor":"#ffffffff"}}},"id":"c0326ec1-d917-470f-ba13-2181b24bd146"},{"type":"Feature","geometry":{"type":"Point","coordinates":[9.084031875438539,59.44582014528798]},"properties":{"style":{"fill":{"color":null},"stroke":{"width":1},"text":{"text":"🦡","font":"12px Mulish","fillColor":"#000000","backgroundFillColor":"#ffffffff"}}},"id":"9c8b3c88-345c-4b57-9f3b-e46c602704ed"},{"type":"Feature","geometry":{"type":"Point","coordinates":[9.084302144539397,59.44583631667385]},"properties":{"style":{"fill":{"color":null},"stroke":{"width":1},"text":{"text":"🦡","font":"12px Mulish","fillColor":"#000000","backgroundFillColor":"#ffffffff"}}},"id":"deb65c57-6ce4-4050-8d01-4af00b01fb2f"},{"type":"Feature","geometry":{"type":"Point","coordinates":[9.084233460445711,59.445841859779]},"properties":{"style":{"fill":{"color":null},"stroke":{"width":1},"text":{"text":"🦡","font":"12px Mulish","fillColor":"#000000","backgroundFillColor":"#ffffffff"}}},"id":"6c6b1b56-de2d-4026-85c0-01485e7595bb"},{"type":"Feature","geometry":{"type":"Point","coordinates":[9.084065265923261,59.4456758758278]},"properties":{"style":{"fill":{"color":null},"stroke":{"width":1},"text":{"text":"🦆","font":"12px Mulish","fillColor":"#000000","backgroundFillColor":"#ffffffff"}}},"id":"3c21eea3-72d0-4de4-bea3-7cfe495a8712"},{"type":"Feature","geometry":{"type":"Point","coordinates":[9.08391115192496,59.44569800815799]},"properties":{"style":{"fill":{"color":null},"stroke":{"width":1},"text":{"text":"🦆","font":"12px Mulish","fillColor":"#000000","backgroundFillColor":"#ffffffff"}}},"id":"c6b6c99e-2dc8-4d08-9ea3-08fa7f3ddf64"},{"type":"Feature","geometry":{"type":"Point","coordinates":[9.08399471736707,59.44569157199163]},"properties":{"style":{"fill":{"color":null},"stroke":{"width":1},"text":{"text":"🦆","font":"24px Mulish","fillColor":"#000000","backgroundFillColor":"#ffffffff"}}},"id":"4aa58100-ce8c-465a-bec9-1e59bf8b0dd9"},{"type":"Feature","geometry":{"type":"Point","coordinates":[9.08434025952801,59.44572841498844]},"properties":null,"id":"5a6359fe-0dd9-4afc-aefb-7da83fa0311d"},{"type":"Feature","geometry":{"type":"Polygon","coordinates":[[[9.084095032879238,59.44571987908494],[9.08407148552798,59.4457298024062],[9.084059398567288,59.445797542750846],[9.083825824026023,59.44576587731713],[9.083803876017983,59.445757817292886],[9.083797642191493,59.44574437366796],[9.083822615892041,59.4456553712728],[9.084421138154488,59.44565559982899],[9.084560062523792,59.44565569250665],[9.084556302404811,59.44576640499999],[9.084455456950295,59.44576748744499],[9.084439543795995,59.445685212753936],[9.084353932896038,59.445691271429226],[9.084348031982012,59.44570130079301],[9.084330087610113,59.44570048832276],[9.084335589508017,59.44566162934798],[9.084181809801557,59.44566306157047],[9.084176202665319,59.445676853577666],[9.08411994805813,59.44567914817201],[9.084129273043573,59.44572029105523],[9.084095032879238,59.44571987908494]]]},"properties":{"style":{"fill":{"color":"#1d823b80"},"stroke":{"color":"#0e5aa0ff","width":2,"lineDash":[]}}},"id":"229ad666-15b4-463f-9639-536f5ac684a9"},{"type":"Feature","geometry":{"type":"Point","coordinates":[9.08434025952801,59.44572841498844]},"properties":null,"id":"046dc202-e47f-40c7-9987-ff1384de0298"},{"type":"Feature","geometry":{"type":"Point","coordinates":[9.084337605943238,59.445732614826106]},"properties":null,"id":"ece38992-29ed-462a-bb26-35dc6a470bee"}]}